[
    {
        "Altitude(m)": 717841.4283678966,
        "Argument of Periapsis(deg)": 0.011390121186627068,
        "Eccentricity": 0.0,
        "Inclination(deg)": 45.0,
        "Latitude(deg)": -45.05577488511568,
        "Longitude(deg)": 98.96711320645765,
        "Mean Anomaly(deg)": -86.6485833525192,
        "RAAN(deg)": 284.98924805854176,
        "Satellite Name": "Constellation 1 1270",
        "Satellite Number": 1270,
        "Semi-Major Axis(m)": 7083131.272910544,
        "Time(s)": 190
    },
    {
        "Altitude(m)": 717839.9490730776,
        "Argument of Periapsis(deg)": 0.011450069192872472,
        "Eccentricity": 0.0,
        "Inclination(deg)": 45.0,
        "Latitude(deg)": -45.05219878961584,
        "Longitude(deg)": 99.04834398406398,
        "Mean Anomaly(deg)": -86.58788221226934,
        "RAAN(deg)": 284.9891914693762,
        "Satellite Name": "Constellation 1 1270",
        "Satellite Number": 1270,
        "Semi-Major Axis(m)": 7083131.272910544,
        "Time(s)": 191
    },
    {
        "Altitude(m)": 717838.4435265528,
        "Argument of Periapsis(deg)": 0.01151001719911788,
        "Eccentricity": 0.0,
        "Inclination(deg)": 45.0,
        "Latitude(deg)": -45.04855895719309,
        "Longitude(deg)": 99.12956405454993,
        "Mean Anomaly(deg)": -86.52718107201937,
        "RAAN(deg)": 284.98913488021066,
        "Satellite Name": "Constellation 1 1270",
        "Satellite Number": 1270,
        "Semi-Major Axis(m)": 7083131.272910544,
        "Time(s)": 192
    },
    {
        "Altitude(m)": 717836.911733866,
        "Argument of Periapsis(deg)": 0.011569965205363285,
        "Eccentricity": 0.0,
        "Inclination(deg)": 45.0,
        "Latitude(deg)": -45.044855403827704,
        "Longitude(deg)": 99.21077306346277,
        "Mean Anomaly(deg)": -86.46647993176944,
        "RAAN(deg)": 284.9890782910451,
        "Satellite Name": "Constellation 1 1270",
        "Satellite Number": 1270,
        "Semi-Major Axis(m)": 7083131.272910544,
        "Time(s)": 193
    },
    {
        "Altitude(m)": 717835.3537006543,
        "Argument of Periapsis(deg)": 0.01162991321160869,
        "Eccentricity": 0.0,
        "Inclination(deg)": 45.0,
        "Latitude(deg)": -45.04108814577452,
        "Longitude(deg)": 99.29197116083228,
        "Mean Anomaly(deg)": -86.40577879151957,
        "RAAN(deg)": 284.98902170187955,
        "Satellite Name": "Constellation 1 1270",
        "Satellite Number": 1270,
        "Semi-Major Axis(m)": 7083131.272910544,
        "Time(s)": 194
    },
    {
        "Altitude(m)": 717833.7694326458,
        "Argument of Periapsis(deg)": 0.011689861217854095,
        "Eccentricity": 0.0,
        "Inclination(deg)": 45.0,
        "Latitude(deg)": -45.0372571995626,
        "Longitude(deg)": 99.37315799259402,
        "Mean Anomaly(deg)": -86.34507765126969,
        "RAAN(deg)": 284.9889651127139,
        "Satellite Name": "Constellation 1 1270",
        "Satellite Number": 1270,
        "Semi-Major Axis(m)": 7083131.272910544,
        "Time(s)": 195
    },
    {
        "Altitude(m)": 717832.1589356817,
        "Argument of Periapsis(deg)": 0.0117498092240995,
        "Eccentricity": 0.0,
        "Inclination(deg)": 45.0,
        "Latitude(deg)": -45.0333625819949,
        "Longitude(deg)": 99.45433337297912,
        "Mean Anomaly(deg)": -86.28437651101973,
        "RAAN(deg)": 284.98890852354833,
        "Satellite Name": "Constellation 1 1270",
        "Satellite Number": 1270,
        "Semi-Major Axis(m)": 7083131.272910544,
        "Time(s)": 196
    },
    {
        "Altitude(m)": 717830.522215682,
        "Argument of Periapsis(deg)": 0.011809757230344905,
        "Eccentricity": 0.0,
        "Inclination(deg)": 45.0,
        "Latitude(deg)": -45.02940431014786,
        "Longitude(deg)": 99.53549711642022,
        "Mean Anomaly(deg)": -86.22367537076988,
        "RAAN(deg)": 284.9888519343828,
        "Satellite Name": "Constellation 1 1270",
        "Satellite Number": 1270,
        "Semi-Major Axis(m)": 7083131.272910544,
        "Time(s)": 197
    },
    {
        "Altitude(m)": 717828.8592786792,
        "Argument of Periapsis(deg)": 0.011869705236590313,
        "Eccentricity": 0.0,
        "Inclination(deg)": 45.0,
        "Latitude(deg)": -45.02538240137114,
        "Longitude(deg)": 99.61664903755579,
        "Mean Anomaly(deg)": -86.16297423052002,
        "RAAN(deg)": 284.9887953452172,
        "Satellite Name": "Constellation 1 1270",
        "Satellite Number": 1270,
        "Semi-Major Axis(m)": 7083131.272910544,
        "Time(s)": 198
    },
    {
        "Altitude(m)": 717827.1701307893,
        "Argument of Periapsis(deg)": 0.011929653242835719,
        "Eccentricity": 0.0,
        "Inclination(deg)": 45.0,
        "Latitude(deg)": -45.02129687328713,
        "Longitude(deg)": 99.69778895123235,
        "Mean Anomaly(deg)": -86.10227309027009,
        "RAAN(deg)": 284.9887387560517,
        "Satellite Name": "Constellation 1 1270",
        "Satellite Number": 1270,
        "Semi-Major Axis(m)": 7083131.272910544,
        "Time(s)": 199
    }
]